[
    {
        "CCSDS_OMM_VERS": "3.0",
        "COMMENT": "GENERATED VIA SPACE-TRACK.ORG API",
        "CREATION_DATE": "2025-05-04T06:56:20",
        "ORIGINATOR": "18 SPCS",
        "OBJECT_NAME": "QZS-1 (MICHIBIKI)",
        "OBJECT_ID": "2010-045A",
        "CENTER_NAME": "EARTH",
        "REF_FRAME": "TEME",
        "TIME_SYSTEM": "UTC",
        "MEAN_ELEMENT_THEORY": "SGP4",
        "EPOCH": "2025-05-03T21:45:41.515200",
        "MEAN_MOTION": "0.87715413",
        "ECCENTRICITY": "0.00026410",
        "INCLINATION": "43.6781",
        "RA_OF_ASC_NODE": "120.8843",
        "ARG_OF_PERICENTER": "9.9918",
        "MEAN_ANOMALY": "171.9362",
        "EPHEMERIS_TYPE": "0",
        "CLASSIFICATION_TYPE": "U",
        "NORAD_CAT_ID": "37158",
        "ELEMENT_SET_NO": "999",
        "REV_AT_EPOCH": "5279",
        "BSTAR": "0.00000000000000",
        "MEAN_MOTION_DOT": "0.00000025",
        "MEAN_MOTION_DDOT": "0.0000000000000",
        "SEMIMAJOR_AXIS": "46098.264",
        "PERIOD": "1641.673",
        "APOAPSIS": "39732.303",
        "PERIAPSIS": "39707.954",
        "OBJECT_TYPE": "PAYLOAD",
        "RCS_SIZE": "LARGE",
        "COUNTRY_CODE": "JPN",
        "LAUNCH_DATE": "2010-09-11",
        "SITE": "TNSTA",
        "DECAY_DATE": null,
        "FILE": "4718504",
        "GP_ID": "286818128",
        "TLE_LINE0": "0 QZS-1 (MICHIBIKI)",
        "TLE_LINE1": "1 37158U 10045A   25123.90673050  .00000025  00000-0  00000+0 0  9993",
        "TLE_LINE2": "2 37158  43.6781 120.8843 0002641   9.9918 171.9362  0.87715413 52798"
    }
]